[{"OBJECT_NAME":"STARLINK-4325","OBJECT_ID":"2022-077AB","EPOCH":"2026-03-09T23:12:40.252320","MEAN_MOTION":15.05644956,"ECCENTRICITY":0.00014527,"INCLINATION":97.6025,"RA_OF_ASC_NODE":251.5,"ARG_OF_PERICENTER":87.0821,"MEAN_ANOMALY":273.0572,"EPHEMERIS_TYPE":0,"CLASSIFICATION_TYPE":"U","NORAD_CAT_ID":53068,"ELEMENT_SET_NO":999,"REV_AT_EPOCH":20102,"BSTAR":9.019798e-6,"MEAN_MOTION_DOT":6.9e-7,"MEAN_MOTION_DDOT":0},{"OBJECT_NAME":"RAPIDEYE 5","OBJECT_ID":"2008-040B","EPOCH":"2026-03-09T15:17:22.403904","MEAN_MOTION":15.02179038,"ECCENTRICITY":0.0014834,"INCLINATION":97.3944,"RA_OF_ASC_NODE":91.3825,"ARG_OF_PERICENTER":86.9831,"MEAN_ANOMALY":273.3091,"EPHEMERIS_TYPE":0,"CLASSIFICATION_TYPE":"U","NORAD_CAT_ID":33313,"ELEMENT_SET_NO":999,"REV_AT_EPOCH":95055,"BSTAR":0.00014028,"MEAN_MOTION_DOT":1.794e-5,"MEAN_MOTION_DDOT":0}]
